{"type": "FeatureCollection", "features": [ {"type": "Feature", "properties": {"norad_id": 31660, "name": "FENGYUN 1C DEB", "group": "fengyun-1c-debris", "lat": 42.9821417644765, "lon": 172.65953291493483, "alt_km": 755.3008845632339, "timestamp": "2025-12-09T04:51:47.776570+00:00", "meta": {"OBJECT_NAME": "FENGYUN 1C DEB", "OBJECT_ID": "1999-025CBS", "EPOCH": "2025-12-04T06:25:52.832640", "MEAN_MOTION": 14.27084649, "ECCENTRICITY": 0.0101329, "INCLINATION": 98.5047, "RA_OF_ASC_NODE": 339.8449, "ARG_OF_PERICENTER": 205.5295, "MEAN_ANOMALY": 154.0863, "EPHEMERIS_TYPE": 0, "CLASSIFICATION_TYPE": "U", "NORAD_CAT_ID": 31660, "ELEMENT_SET_NO": 999, "REV_AT_EPOCH": 7795, "BSTAR": 0.0012372, "MEAN_MOTION_DOT": 3.142e-05, "MEAN_MOTION_DDOT": 0}, "tle": {"line1": "1 31660U 99025CBS 25338.26797260  .00003142  00000+0  12372-2 0  9997", "line2": "2 31660  98.5047 339.8449 0101329 205.5295 154.0863 14.27084649 77955"}}, "geometry": {"type": "Point", "coordinates": [172.65953291493483, 42.9821417644765]}}, {"type": "Feature", "properties": {"norad_id": 31661, "name": "FENGYUN 1C DEB", "group": "fengyun-1c-debris", "lat": -40.48140108328952, "lon": -125.40312959492475, "alt_km": 772.787443613186, "timestamp": "2025-12-09T04:51:47.776580+00:00", "meta": {"OBJECT_NAME": "FENGYUN 1C DEB", "OBJECT_ID": "1999-025CBT", "EPOCH": "2025-12-08T18:19:31.774080", "MEAN_MOTION": 14.25385113, "ECCENTRICITY": 0.0058329, "INCLINATION": 98.8607, "RA_OF_ASC_NODE": 61.8047, "ARG_OF_PERICENTER": 235.1149, "MEAN_ANOMALY": 254.2204, "EPHEMERIS_TYPE": 0, "CLASSIFICATION_TYPE": "U", "NORAD_CAT_ID": 31661, "ELEMENT_SET_NO": 999, "REV_AT_EPOCH": 95656, "BSTAR": 0.0027978, "MEAN_MOTION_DOT": 6.675e-05, "MEAN_MOTION_DDOT": 0}, "tle": {"line1": "1 31661U 99025CBT 25342.76356220  .00006675  00000+0  27978-2 0  9997", "line2": "2 31661  98.8607  61.8047 0058329 235.1149 254.2204 14.25385113956568"}}, "geometry": {"type": "Point", "coordinates": [-125.40312959492475, -40.48140108328952]}}, {"type": "Feature", "properties": {"norad_id": 31663, "name": "FENGYUN 1C DEB", "group": "fengyun-1c-debris", "lat": 52.910305635987896, "lon": 82.61294806542804, "alt_km": 705.8971251394969, "timestamp": "2025-12-09T04:51:47.776590+00:00", "meta": {"OBJECT_NAME": "FENGYUN 1C DEB", "OBJECT_ID": "1999-025CBV", "EPOCH": "2025-12-03T11:38:28.212864", "MEAN_MOTION": 14.76310711, "ECCENTRICITY": 0.01897685, "INCLINATION": 98.838, "RA_OF_ASC_NODE": 244.4812, "ARG_OF_PERICENTER": 266.7407, "MEAN_ANOMALY": 91.2075, "EPHEMERIS_TYPE": 0, "CLASSIFICATION_TYPE": "U", "NORAD_CAT_ID": 31663, "ELEMENT_SET_NO": 999, "REV_AT_EPOCH": 99143, "BSTAR": 0.0005527041, "MEAN_MOTION_DOT": 5.081e-05, "MEAN_MOTION_DDOT": 0}, "tle": {"line1": "1 31663U 99025CBV 25337.48504876  .00005081  00000+0  55270-3 0  9991", "line2": "2 31663  98.8380 244.4812 0189768 266.7407  91.2075 14.76310711991434"}}, "geometry": {"type": "Point", "coordinates": [82.61294806542804, 52.910305635987896]}}, {"type": "Feature", "properties": {"norad_id": 31664, "name": "FENGYUN 1C DEB", "group": "fengyun-1c-debris", "lat": 68.42150602309648, "lon": -48.11163092896155, "alt_km": 862.9274614701089, "timestamp": "2025-12-09T04:51:47.776604+00:00", "meta": {"OBJECT_NAME": "FENGYUN 1C DEB", "OBJECT_ID": "1999-025CBW", "EPOCH": "2025-12-07T16:46:06.708000", "MEAN_MOTION": 14.1028697, "ECCENTRICITY": 0.01246191, "INCLINATION": 98.7511, "RA_OF_ASC_NODE": 333.3459, "ARG_OF_PERICENTER": 172.3549, "MEAN_ANOMALY": 187.9561, "EPHEMERIS_TYPE": 0, "CLASSIFICATION_TYPE": "U", "NORAD_CAT_ID": 31664, "ELEMENT_SET_NO": 999, "REV_AT_EPOCH": 95930, "BSTAR": 0.00058142999, "MEAN_MOTION_DOT": 1.066e-05, "MEAN_MOTION_DDOT": 0}, "tle": {"line1": "1 31664U 99025CBW 25341.69868875  .00001066  00000+0  58143-3 0  9993", "line2": "2 31664  98.7511 333.3459 0124619 172.3549 187.9561 14.10286970959308"}}, "geometry": {"type": "Point", "coordinates": [-48.11163092896155, 68.42150602309648]}}, {"type": "Feature", "properties": {"norad_id": 31665, "name": "FENGYUN 1C DEB", "group": "fengyun-1c-debris", "lat": 58.615380260691296, "lon": 12.407688894233312, "alt_km": 1041.2973385223304, "timestamp": "2025-12-09T04:51:47.776614+00:00", "meta": {"OBJECT_NAME": "FENGYUN 1C DEB", "OBJECT_ID": "1999-025CBX", "EPOCH": "2025-12-07T14:24:57.671136", "MEAN_MOTION": 13.84797658, "ECCENTRICITY": 0.01894703, "INCLINATION": 98.4506, "RA_OF_ASC_NODE": 25.0684, "ARG_OF_PERICENTER": 201.0018, "MEAN_ANOMALY": 158.3283, "EPHEMERIS_TYPE": 0, "CLASSIFICATION_TYPE": "U", "NORAD_CAT_ID": 31665, "ELEMENT_SET_NO": 999, "REV_AT_EPOCH": 93120, "BSTAR": 0.0019330831, "MEAN_MOTION_DOT": 2.467e-05, "MEAN_MOTION_DDOT": 0}, "tle": {"line1": "1 31665U 99025CBX 25341.60066749  .00002467  00000+0  19331-2 0  9996", "line2": "2 31665  98.4506  25.0684 0189470 201.0018 158.3283 13.84797658931204"}}, "geometry": {"type": "Point", "coordinates": [12.407688894233312, 58.615380260691296]}}, {"type": "Feature", "properties": {"norad_id": 31666, "name": "FENGYUN 1C DEB", "group": "fengyun-1c-debris", "lat": -48.08212101837866, "lon": 141.34486642174716, "alt_km": 640.186878794756, "timestamp": "2025-12-09T04:51:47.776625+00:00", "meta": {"OBJECT_NAME": "FENGYUN 1C DEB", "OBJECT_ID": "1999-025CBY", "EPOCH": "2025-12-06T22:02:31.599456", "MEAN_MOTION": 14.83277188, "ECCENTRICITY": 0.00254017, "INCLINATION": 98.6531, "RA_OF_ASC_NODE": 129.1065, "ARG_OF_PERICENTER": 170.033, "MEAN_ANOMALY": 190.139, "EPHEMERIS_TYPE": 0, "CLASSIFICATION_TYPE": "U", "NORAD_CAT_ID": 31666, "ELEMENT_SET_NO": 999, "REV_AT_EPOCH": 97185, "BSTAR": 0.0063860544, "MEAN_MOTION_DOT": 0.00052864, "MEAN_MOTION_DDOT": 0}, "tle": {"line1": "1 31666U 99025CBY 25340.91842129  .00052864  00000+0  63861-2 0  9997", "line2": "2 31666  98.6531 129.1065 0025401 170.0330 190.1390 14.83277188971858"}}, "geometry": {"type": "Point", "coordinates": [141.34486642174716, -48.08212101837866]}}, {"type": "Feature", "properties": {"norad_id": 31667, "name": "FENGYUN 1C DEB", "group": "fengyun-1c-debris", "lat": 71.37834677718564, "lon": 43.43412966318338, "alt_km": 769.8216590722104, "timestamp": "2025-12-09T04:51:47.776635+00:00", "meta": {"OBJECT_NAME": "FENGYUN 1C DEB", "OBJECT_ID": "1999-025CBZ", "EPOCH": "2025-12-08T19:56:03.363072", "MEAN_MOTION": 14.2349492, "ECCENTRICITY": 0.0051798, "INCLINATION": 99.0845, "RA_OF_ASC_NODE": 194.7017, "ARG_OF_PERICENTER": 98.3602, "MEAN_ANOMALY": 262.3452, "EPHEMERIS_TYPE": 0, "CLASSIFICATION_TYPE": "U", "NORAD_CAT_ID": 31667, "ELEMENT_SET_NO": 999, "REV_AT_EPOCH": 55937, "BSTAR": 0.00044658, "MEAN_MOTION_DOT": 9.83e-06, "MEAN_MOTION_DDOT": 0}, "tle": {"line1": "1 31667U 99025CBZ 25342.83059448  .00000983  00000+0  44658-3 0  9994", "line2": "2 31667  99.0845 194.7017 0051798  98.3602 262.3452 14.23494920559378"}}, "geometry": {"type": "Point", "coordinates": [43.43412966318338, 71.37834677718564]}}, {"type": "Feature", "properties": {"norad_id": 31672, "name": "FENGYUN 1C DEB", "group": "fengyun-1c-debris", "lat": -12.935370792321757, "lon": -11.50080662952134, "alt_km": 799.0360001963227, "timestamp": "2025-12-09T04:51:47.776645+00:00", "meta": {"OBJECT_NAME": "FENGYUN 1C DEB", "OBJECT_ID": "1999-025CCE", "EPOCH": "2025-12-07T18:52:15.548448", "MEAN_MOTION": 14.50829598, "ECCENTRICITY": 0.01080863, "INCLINATION": 98.9568, "RA_OF_ASC_NODE": 169.0682, "ARG_OF_PERICENTER": 356.6298, "MEAN_ANOMALY": 3.4154, "EPHEMERIS_TYPE": 0, "CLASSIFICATION_TYPE": "U", "NORAD_CAT_ID": 31672, "ELEMENT_SET_NO": 999, "REV_AT_EPOCH": 64799, "BSTAR": 0.0026230163, "MEAN_MOTION_DOT": 0.00011109, "MEAN_MOTION_DDOT": 0}, "tle": {"line1": "1 31672U 99025CCE 25341.78629107  .00011109  00000+0  26230-2 0  9995", "line2": "2 31672  98.9568 169.0682 0108086 356.6298   3.4154 14.50829598647993"}}, "geometry": {"type": "Point", "coordinates": [-11.50080662952134, -12.935370792321757]}}, {"type": "Feature", "properties": {"norad_id": 31673, "name": "FENGYUN 1C DEB", "group": "fengyun-1c-debris", "lat": 63.82822569402397, "lon": 157.7497055881883, "alt_km": 689.3901114373866, "timestamp": "2025-12-09T04:51:47.776655+00:00", "meta": {"OBJECT_NAME": "FENGYUN 1C DEB", "OBJECT_ID": "1999-025CCF", "EPOCH": "2025-12-08T06:45:52.085376", "MEAN_MOTION": 14.31934796, "ECCENTRICITY": 0.01258202, "INCLINATION": 99.3746, "RA_OF_ASC_NODE": 176.3979, "ARG_OF_PERICENTER": 61.7337, "MEAN_ANOMALY": 299.6476, "EPHEMERIS_TYPE": 0, "CLASSIFICATION_TYPE": "U", "NORAD_CAT_ID": 31673, "ELEMENT_SET_NO": 999, "REV_AT_EPOCH": 64827, "BSTAR": 0.00037901673, "MEAN_MOTION_DOT": 1.056e-05, "MEAN_MOTION_DDOT": 0}, "tle": {"line1": "1 31673U 99025CCF 25342.28185284  .00001056  00000+0  37902-3 0  9994", "line2": "2 31673  99.3746 176.3979 0125820  61.7337 299.6476 14.31934796648274"}}, "geometry": {"type": "Point", "coordinates": [157.7497055881883, 63.82822569402397]}}, {"type": "Feature", "properties": {"norad_id": 31674, "name": "FENGYUN 1C DEB", "group": "fengyun-1c-debris", "lat": -58.1984847559385, "lon": 33.976752217173335, "alt_km": 709.7530517310661, "timestamp": "2025-12-09T04:51:47.776665+00:00", "meta": {"OBJECT_NAME": "FENGYUN 1C DEB", "OBJECT_ID": "1999-025CCG", "EPOCH": "2025-12-07T20:03:09.240768", "MEAN_MOTION": 14.51721718, "ECCENTRICITY": 0.00242921, "INCLINATION": 98.9262, "RA_OF_ASC_NODE": 17.8424, "ARG_OF_PERICENTER": 299.9306, "MEAN_ANOMALY": 59.9475, "EPHEMERIS_TYPE": 0, "CLASSIFICATION_TYPE": "U", "NORAD_CAT_ID": 31674, "ELEMENT_SET_NO": 999, "REV_AT_EPOCH": 64543, "BSTAR": 0.0048161293, "MEAN_MOTION_DOT": 0.00019418, "MEAN_MOTION_DDOT": 0}, "tle": {"line1": "1 31674U 99025CCG 25341.83552362  .00019418  00000+0  48161-2 0  9999", "line2": "2 31674  98.9262  17.8424 0024292 299.9306  59.9475 14.51721718645430"}}, "geometry": {"type": "Point", "coordinates": [33.976752217173335, -58.1984847559385]}}]}